STARLINK-30716
1 57936U 23148B   25332.15456752  .00000266  00000+0  21115-4 0  9995
2 57936  53.1596 136.0535 0001018  82.8966 277.2151 15.30195896122875